ORBCOMM FM05 [-]        
1 25117U 97084F   24017.94412312  .00003194  00000+0  10068-2 0  9997
2 25117  45.0165 318.7643 0000982 160.5256 199.5631 14.42026960365995
ORBCOMM FM06 [+]        
1 25118U 97084G   24018.28052669  .00003169  00000+0  99982-3 0  9996
2 25118  45.0156 317.3402 0000494 222.9443 296.0160 14.42010358366954
ORBCOMM FM07 [-]        
1 25119U 97084H   24018.23549515  .00003230  00000+0  10195-2 0  9990
2 25119  45.0151 318.0327 0001629 131.2188 228.8803 14.41945585366947
ORBCOMM FM03 [-]        
1 25158U 98007B   24018.34777328  .00002173  00000+0  85229-3 0  9992
2 25158 107.9727 158.1142 0045059  68.8251 291.7694 14.31724082350144
ORBCOMM FM04 [+]        
1 25159U 98007C   24018.35663877  .00002139  00000+0  83696-3 0  9995
2 25159 107.9714 160.9936 0040590  66.5925 293.9475 14.31980055350315
ORBCOMM FM17 [-]        
1 25413U 98046A   24018.54472096  .00002022  00000+0  78729-3 0  9995
2 25413  44.9930 166.4464 0002988 163.1800 196.9146 14.32712822329162
ORBCOMM FM18 [-]        
1 25414U 98046B   24018.33323909  .00002765  00000+0  10038-2 0  9993
2 25414  44.9937  96.8739 0005919 217.2422 142.8016 14.35338543330052
ORBCOMM FM19 [+]        
1 25415U 98046C   24018.37984481  .00002228  00000+0  82089-3 0  9996
2 25415  44.9945  97.9159 0004603 214.5772 268.2162 14.35185628330023
